{
  "type": "FeatureCollection",
  "features": [
    {
      "type": "Feature",
      "properties": {
        "norad_id": 63772,
        "name": "BIOMASS",
        "group": "resource",
        "lat": -34.11812833391286,
        "lon": 167.12720029673073,
        "alt_km": 675.5163674856276,
        "timestamp": "2025-12-02T10:50:46.931264+00:00",
        "meta_object_name": "BIOMASS",
        "meta_object_id": "2025-090A",
        "meta_epoch": "2025-12-02T01:11:06.317088",
        "meta_mean_motion": 14.67541202,
        "meta_eccentricity": 0.0001212,
        "meta_inclination": 98.0707,
        "meta_ra_of_asc_node": 161.214,
        "meta_arg_of_pericenter": 83.0609,
        "meta_mean_anomaly": 277.0733,
        "meta_ephemeris_type": 0,
        "meta_classification_type": "U",
        "meta_norad_cat_id": 63772,
        "meta_element_set_no": 999,
        "meta_rev_at_epoch": 3177,
        "meta_bstar": 0.00030459,
        "meta_mean_motion_dot": 1.68e-05,
        "meta_mean_motion_ddot": 0,
        "tle_line1": "1 63772U 25090A   25336.04937867  .00001680  00000+0  30459-3 0  9992",
        "tle_line2": "2 63772  98.0707 161.2140 0001212  83.0609 277.0733 14.67541202 31774"
      },
      "geometry": {
        "type": "Point",
        "coordinates": [
          167.12720029673073,
          -34.11812833391286
        ]
      }
    },
    {
      "type": "Feature",
      "properties": {
        "norad_id": 64694,
        "name": "GOSAT-GW (IBUKI GW)",
        "group": "resource",
        "lat": 5.594466682460361,
        "lon": 92.94449459862271,
        "alt_km": 671.2164709661411,
        "timestamp": "2025-12-02T10:50:46.931274+00:00",
        "meta_object_name": "GOSAT-GW (IBUKI GW)",
        "meta_object_id": "2025-141A",
        "meta_epoch": "2025-11-30T05:41:32.267328",
        "meta_mean_motion": 14.67567435,
        "meta_eccentricity": 0.00014369,
        "meta_inclination": 98.0401,
        "meta_ra_of_asc_node": 269.9775,
        "meta_arg_of_pericenter": 82.921,
        "meta_mean_anomaly": 277.2158,
        "meta_ephemeris_type": 0,
        "meta_classification_type": "U",
        "meta_norad_cat_id": 64694,
        "meta_element_set_no": 999,
        "meta_rev_at_epoch": 2266,
        "meta_bstar": 0.00019762357,
        "meta_mean_motion_dot": 1.074e-05,
        "meta_mean_motion_ddot": 0,
        "tle_line1": "1 64694U 25141A   25334.23717902  .00001074  00000+0  19762-3 0  9999",
        "tle_line2": "2 64694  98.0401 269.9775 0001436  82.9210 277.2158 14.67567435 22660"
      },
      "geometry": {
        "type": "Point",
        "coordinates": [
          92.94449459862271,
          5.594466682460361
        ]
      }
    },
    {
      "type": "Feature",
      "properties": {
        "norad_id": 64876,
        "name": "IONOSFERA-M 3",
        "group": "resource",
        "lat": 78.33391101478448,
        "lon": -108.35478905039824,
        "alt_km": 811.4404804562773,
        "timestamp": "2025-12-02T10:50:46.931285+00:00",
        "meta_object_name": "IONOSFERA-M 3",
        "meta_object_id": "2025-155A",
        "meta_epoch": "2025-12-02T03:42:15.523776",
        "meta_mean_motion": 14.21436702,
        "meta_eccentricity": 0.0002407,
        "meta_inclination": 98.5768,
        "meta_ra_of_asc_node": 298.3208,
        "meta_arg_of_pericenter": 76.384,
        "meta_mean_anomaly": 283.7606,
        "meta_ephemeris_type": 0,
        "meta_classification_type": "U",
        "meta_norad_cat_id": 64876,
        "meta_element_set_no": 999,
        "meta_rev_at_epoch": 1841,
        "meta_bstar": 6.6456e-05,
        "meta_mean_motion_dot": 1.03e-06,
        "meta_mean_motion_ddot": 0,
        "tle_line1": "1 64876U 25155A   25336.15434634  .00000103  00000+0  66456-4 0  9992",
        "tle_line2": "2 64876  98.5768 298.3208 0002407  76.3840 283.7606 14.21436702 18415"
      },
      "geometry": {
        "type": "Point",
        "coordinates": [
          -108.35478905039824,
          78.33391101478448
        ]
      }
    },
    {
      "type": "Feature",
      "properties": {
        "norad_id": 64877,
        "name": "IONOSFERA-M 4",
        "group": "resource",
        "lat": -78.75676030465556,
        "lon": 69.1389267886794,
        "alt_km": 829.0725298623956,
        "timestamp": "2025-12-02T10:50:46.931296+00:00",
        "meta_object_name": "IONOSFERA-M 4",
        "meta_object_id": "2025-155B",
        "meta_epoch": "2025-12-02T04:32:45.907008",
        "meta_mean_motion": 14.21437687,
        "meta_eccentricity": 0.0001764,
        "meta_inclination": 98.5766,
        "meta_ra_of_asc_node": 298.2746,
        "meta_arg_of_pericenter": 74.4263,
        "meta_mean_anomaly": 285.711,
        "meta_ephemeris_type": 0,
        "meta_classification_type": "U",
        "meta_norad_cat_id": 64877,
        "meta_element_set_no": 999,
        "meta_rev_at_epoch": 1841,
        "meta_bstar": 6.3313e-05,
        "meta_mean_motion_dot": 9.6e-07,
        "meta_mean_motion_ddot": 0,
        "tle_line1": "1 64877U 25155B   25336.18942022  .00000096  00000+0  63313-4 0  9991",
        "tle_line2": "2 64877  98.5766 298.2746 0001764  74.4263 285.7110 14.21437687 18418"
      },
      "geometry": {
        "type": "Point",
        "coordinates": [
          69.1389267886794,
          -78.75676030465556
        ]
      }
    },
    {
      "type": "Feature",
      "properties": {
        "norad_id": 64899,
        "name": "MICROCARB",
        "group": "resource",
        "lat": -13.79341251646759,
        "lon": 53.941519066486755,
        "alt_km": 670.589942914291,
        "timestamp": "2025-12-02T10:50:46.931306+00:00",
        "meta_object_name": "MICROCARB",
        "meta_object_id": "2025-156A",
        "meta_epoch": "2025-12-02T02:45:09.944352",
        "meta_mean_motion": 14.7202788,
        "meta_eccentricity": 0.0016449,
        "meta_inclination": 98.0036,
        "meta_ra_of_asc_node": 51.6302,
        "meta_arg_of_pericenter": 177.7564,
        "meta_mean_anomaly": 182.372,
        "meta_ephemeris_type": 0,
        "meta_classification_type": "U",
        "meta_norad_cat_id": 64899,
        "meta_element_set_no": 999,
        "meta_rev_at_epoch": 1897,
        "meta_bstar": 0.00015449,
        "meta_mean_motion_dot": 9.22e-06,
        "meta_mean_motion_ddot": 0,
        "tle_line1": "1 64899U 25156A   25336.11469843  .00000922  00000+0  15449-3 0  9998",
        "tle_line2": "2 64899  98.0036  51.6302 0016449 177.7564 182.3720 14.72027880 18979"
      },
      "geometry": {
        "type": "Point",
        "coordinates": [
          53.941519066486755,
          -13.79341251646759
        ]
      }
    },
    {
      "type": "Feature",
      "properties": {
        "norad_id": 64900,
        "name": "CO3D 3",
        "group": "resource",
        "lat": -43.28141343843097,
        "lon": 59.25797610575207,
        "alt_km": 629.8571793270057,
        "timestamp": "2025-12-02T10:50:46.931316+00:00",
        "meta_object_name": "CO3D 3",
        "meta_object_id": "2025-156B",
        "meta_epoch": "2025-11-29T13:08:11.122944",
        "meta_mean_motion": 15.11495615,
        "meta_eccentricity": 0.01368669,
        "meta_inclination": 97.6723,
        "meta_ra_of_asc_node": 49.0485,
        "meta_arg_of_pericenter": 160.1625,
        "meta_mean_anomaly": 200.5002,
        "meta_ephemeris_type": 0,
        "meta_classification_type": "U",
        "meta_norad_cat_id": 64900,
        "meta_element_set_no": 999,
        "meta_rev_at_epoch": 1920,
        "meta_bstar": 0.00046350794,
        "meta_mean_motion_dot": 9.779e-05,
        "meta_mean_motion_ddot": 0,
        "tle_line1": "1 64900U 25156B   25333.54735096  .00009779  00000+0  46351-3 0  9996",
        "tle_line2": "2 64900  97.6723  49.0485 0136866 160.1625 200.5002 15.11495615 19205"
      },
      "geometry": {
        "type": "Point",
        "coordinates": [
          59.25797610575207,
          -43.28141343843097
        ]
      }
    },
    {
      "type": "Feature",
      "properties": {
        "norad_id": 64901,
        "name": "CO3D 4",
        "group": "resource",
        "lat": 45.784915519419094,
        "lon": 45.25321665563856,
        "alt_km": 502.1344203751396,
        "timestamp": "2025-12-02T10:50:46.931326+00:00",
        "meta_object_name": "CO3D 4",
        "meta_object_id": "2025-156C",
        "meta_epoch": "2025-12-01T18:50:45.474720",
        "meta_mean_motion": 15.20204195,
        "meta_eccentricity": 0.0001211,
        "meta_inclination": 97.4354,
        "meta_ra_of_asc_node": 52.3098,
        "meta_arg_of_pericenter": 238.3057,
        "meta_mean_anomaly": 121.806,
        "meta_ephemeris_type": 0,
        "meta_classification_type": "U",
        "meta_norad_cat_id": 64901,
        "meta_element_set_no": 999,
        "meta_rev_at_epoch": 1954,
        "meta_bstar": -1.4421e-05,
        "meta_mean_motion_dot": -3.8e-06,
        "meta_mean_motion_ddot": 0,
        "tle_line1": "1 64901U 25156C   25335.78524855 -.00000380  00000+0 -14421-4 0  9999",
        "tle_line2": "2 64901  97.4354  52.3098 0001211 238.3057 121.8060 15.20204195 19540"
      },
      "geometry": {
        "type": "Point",
        "coordinates": [
          45.25321665563856,
          45.784915519419094
        ]
      }
    }
  ]
}